{
  "type": "FeatureCollection",
  "features": [
    {
      "type": "Feature",
      "properties": {
        "norad_id": 33791,
        "name": "COSMOS 2251 DEB",
        "group": "cosmos-2251-debris",
        "lat": 38.507851845055136,
        "lon": 68.74458103965652,
        "alt_km": 763.2845951238824,
        "timestamp": "2025-12-02T21:34:01.663207+00:00",
        "meta_object_name": "COSMOS 2251 DEB",
        "meta_object_id": "1993-036AG",
        "meta_epoch": "2025-12-02T10:05:14.142048",
        "meta_mean_motion": 14.4304007,
        "meta_eccentricity": 0.0030579,
        "meta_inclination": 74.1759,
        "meta_ra_of_asc_node": 56.5833,
        "meta_arg_of_pericenter": 255.43,
        "meta_mean_anomaly": 180.9129,
        "meta_ephemeris_type": 0,
        "meta_classification_type": "U",
        "meta_norad_cat_id": 33791,
        "meta_element_set_no": 999,
        "meta_rev_at_epoch": 87903,
        "meta_bstar": 0.00085401,
        "meta_mean_motion_dot": 2.853e-05,
        "meta_mean_motion_ddot": 0,
        "tle_line1": "1 33791U 93036AG  25336.42030257  .00002853  00000+0  85401-3 0  9994",
        "tle_line2": "2 33791  74.1759  56.5833 0030579 255.4300 180.9129 14.43040070879031"
      },
      "geometry": {
        "type": "Point",
        "coordinates": [
          68.74458103965652,
          38.507851845055136
        ]
      }
    },
    {
      "type": "Feature",
      "properties": {
        "norad_id": 33792,
        "name": "COSMOS 2251 DEB",
        "group": "cosmos-2251-debris",
        "lat": -65.74405941477211,
        "lon": -38.79902631964152,
        "alt_km": 1329.638503489129,
        "timestamp": "2025-12-02T21:34:01.663217+00:00",
        "meta_object_name": "COSMOS 2251 DEB",
        "meta_object_id": "1993-036AH",
        "meta_epoch": "2025-12-02T11:44:52.132128",
        "meta_mean_motion": 13.45800497,
        "meta_eccentricity": 0.0426816,
        "meta_inclination": 73.9012,
        "meta_ra_of_asc_node": 1.713,
        "meta_arg_of_pericenter": 68.2829,
        "meta_mean_anomaly": 41.9153,
        "meta_ephemeris_type": 0,
        "meta_classification_type": "U",
        "meta_norad_cat_id": 33792,
        "meta_element_set_no": 999,
        "meta_rev_at_epoch": 82304,
        "meta_bstar": 0.00076236,
        "meta_mean_motion_dot": 7.7e-06,
        "meta_mean_motion_ddot": 0,
        "tle_line1": "1 33792U 93036AH  25336.48949227  .00000770  00000+0  76236-3 0  9999",
        "tle_line2": "2 33792  73.9012   1.7130 0426816  68.2829  41.9153 13.45800497823043"
      },
      "geometry": {
        "type": "Point",
        "coordinates": [
          -38.79902631964152,
          -65.74405941477211
        ]
      }
    },
    {
      "type": "Feature",
      "properties": {
        "norad_id": 33793,
        "name": "COSMOS 2251 DEB",
        "group": "cosmos-2251-debris",
        "lat": 65.3444401717416,
        "lon": -50.94832599405624,
        "alt_km": 840.8393115510744,
        "timestamp": "2025-12-02T21:34:01.663228+00:00",
        "meta_object_name": "COSMOS 2251 DEB",
        "meta_object_id": "1993-036AJ",
        "meta_epoch": "2025-12-02T06:45:35.467200",
        "meta_mean_motion": 14.27668004,
        "meta_eccentricity": 0.0078149,
        "meta_inclination": 73.9798,
        "meta_ra_of_asc_node": 168.9236,
        "meta_arg_of_pericenter": 321.0707,
        "meta_mean_anomaly": 217.6959,
        "meta_ephemeris_type": 0,
        "meta_classification_type": "U",
        "meta_norad_cat_id": 33793,
        "meta_element_set_no": 999,
        "meta_rev_at_epoch": 87057,
        "meta_bstar": 0.00077971,
        "meta_mean_motion_dot": 1.959e-05,
        "meta_mean_motion_ddot": 0,
        "tle_line1": "1 33793U 93036AJ  25336.28166050  .00001959  00000+0  77971-3 0  9990",
        "tle_line2": "2 33793  73.9798 168.9236 0078149 321.0707 217.6959 14.27668004870578"
      },
      "geometry": {
        "type": "Point",
        "coordinates": [
          -50.94832599405624,
          65.3444401717416
        ]
      }
    },
    {
      "type": "Feature",
      "properties": {
        "norad_id": 33795,
        "name": "COSMOS 2251 DEB",
        "group": "cosmos-2251-debris",
        "lat": -10.890627368994362,
        "lon": -79.93583879345299,
        "alt_km": 532.972478574804,
        "timestamp": "2025-12-02T21:34:01.663238+00:00",
        "meta_object_name": "COSMOS 2251 DEB",
        "meta_object_id": "1993-036AL",
        "meta_epoch": "2025-12-02T09:48:06.604992",
        "meta_mean_motion": 15.04836502,
        "meta_eccentricity": 0.0033437,
        "meta_inclination": 74.0314,
        "meta_ra_of_asc_node": 97.9096,
        "meta_arg_of_pericenter": 184.3341,
        "meta_mean_anomaly": 232.2131,
        "meta_ephemeris_type": 0,
        "meta_classification_type": "U",
        "meta_norad_cat_id": 33795,
        "meta_element_set_no": 999,
        "meta_rev_at_epoch": 89866,
        "meta_bstar": 0.0019712,
        "meta_mean_motion_dot": 0.00028276,
        "meta_mean_motion_ddot": 0,
        "tle_line1": "1 33795U 93036AL  25336.40840978  .00028276  00000+0  19712-2 0  9993",
        "tle_line2": "2 33795  74.0314  97.9096 0033437 184.3341 232.2131 15.04836502898667"
      },
      "geometry": {
        "type": "Point",
        "coordinates": [
          -79.93583879345299,
          -10.890627368994362
        ]
      }
    },
    {
      "type": "Feature",
      "properties": {
        "norad_id": 33797,
        "name": "COSMOS 2251 DEB",
        "group": "cosmos-2251-debris",
        "lat": -63.886184092671904,
        "lon": -90.64269884798367,
        "alt_km": 717.8734395164147,
        "timestamp": "2025-12-02T21:34:01.663248+00:00",
        "meta_object_name": "COSMOS 2251 DEB",
        "meta_object_id": "1993-036AN",
        "meta_epoch": "2025-12-02T07:32:15.616032",
        "meta_mean_motion": 14.57773976,
        "meta_eccentricity": 0.0061306,
        "meta_inclination": 74.0485,
        "meta_ra_of_asc_node": 54.7719,
        "meta_arg_of_pericenter": 145.7097,
        "meta_mean_anomaly": 276.109,
        "meta_ephemeris_type": 0,
        "meta_classification_type": "U",
        "meta_norad_cat_id": 33797,
        "meta_element_set_no": 999,
        "meta_rev_at_epoch": 88833,
        "meta_bstar": 0.00068498,
        "meta_mean_motion_dot": 3.185e-05,
        "meta_mean_motion_ddot": 0,
        "tle_line1": "1 33797U 93036AN  25336.31406963  .00003185  00000+0  68498-3 0  9995",
        "tle_line2": "2 33797  74.0485  54.7719 0061306 145.7097 276.1090 14.57773976888332"
      },
      "geometry": {
        "type": "Point",
        "coordinates": [
          -90.64269884798367,
          -63.886184092671904
        ]
      }
    },
    {
      "type": "Feature",
      "properties": {
        "norad_id": 33798,
        "name": "COSMOS 2251 DEB",
        "group": "cosmos-2251-debris",
        "lat": -51.59397903681326,
        "lon": -4.585442052277996,
        "alt_km": 701.6385061620094,
        "timestamp": "2025-12-02T21:34:01.663268+00:00",
        "meta_object_name": "COSMOS 2251 DEB",
        "meta_object_id": "1993-036AP",
        "meta_epoch": "2025-12-02T12:28:34.315104",
        "meta_mean_motion": 14.44594438,
        "meta_eccentricity": 0.009248,
        "meta_inclination": 74.0276,
        "meta_ra_of_asc_node": 154.9409,
        "meta_arg_of_pericenter": 278.516,
        "meta_mean_anomaly": 147.6254,
        "meta_ephemeris_type": 0,
        "meta_classification_type": "U",
        "meta_norad_cat_id": 33798,
        "meta_element_set_no": 999,
        "meta_rev_at_epoch": 88446,
        "meta_bstar": 0.00020721,
        "meta_mean_motion_dot": 7.26e-06,
        "meta_mean_motion_ddot": 0,
        "tle_line1": "1 33798U 93036AP  25336.51984161  .00000726  00000+0  20721-3 0  9994",
        "tle_line2": "2 33798  74.0276 154.9409 0092480 278.5160 147.6254 14.44594438884467"
      },
      "geometry": {
        "type": "Point",
        "coordinates": [
          -4.585442052277996,
          -51.59397903681326
        ]
      }
    },
    {
      "type": "Feature",
      "properties": {
        "norad_id": 33799,
        "name": "COSMOS 2251 DEB",
        "group": "cosmos-2251-debris",
        "lat": -33.001155502345775,
        "lon": 90.44236303082248,
        "alt_km": 652.4991634040243,
        "timestamp": "2025-12-02T21:34:01.663289+00:00",
        "meta_object_name": "COSMOS 2251 DEB",
        "meta_object_id": "1993-036AQ",
        "meta_epoch": "2025-12-02T10:38:07.359936",
        "meta_mean_motion": 14.79283098,
        "meta_eccentricity": 0.0024671,
        "meta_inclination": 74.0311,
        "meta_ra_of_asc_node": 102.0559,
        "meta_arg_of_pericenter": 175.3474,
        "meta_mean_anomaly": 245.4377,
        "meta_ephemeris_type": 0,
        "meta_classification_type": "U",
        "meta_norad_cat_id": 33799,
        "meta_element_set_no": 999,
        "meta_rev_at_epoch": 88659,
        "meta_bstar": 0.0023015,
        "meta_mean_motion_dot": 0.00017217,
        "meta_mean_motion_ddot": 0,
        "tle_line1": "1 33799U 93036AQ  25336.44314074  .00017217  00000+0  23015-2 0  9998",
        "tle_line2": "2 33799  74.0311 102.0559 0024671 175.3474 245.4377 14.79283098886591"
      },
      "geometry": {
        "type": "Point",
        "coordinates": [
          90.44236303082248,
          -33.001155502345775
        ]
      }
    }
  ]
}